STARLINK-1218_new
1 15209C 20012AH  21326.08396220 -.00017726  00000-0 -12577-3 0  3263
2 15209  53.0511 159.7169 0006101 277.9592 311.0697 15.73237698    13
STARLINK-1218_old
1 25209C 20012AH  21325.06530552  .00002103  00000-0  14933-4 0  3257
2 25209  53.0514 164.7770 0006266 273.5704 302.8628 15.73202601    17
